start=new Date('2022-12-29T00:00:00.000Z').valueOf();
sats=[{"PERIAPSIS":"538.456","EPOCH":"2022-12-27T23:52:18.080544","TLE_LINE1":"1 53571U 22101AW  22361.99465371 -.00008026  00000-0 -48601-3 0  9995","GP_ID":"221665494","CENTER_NAME":"EARTH","COUNTRY_CODE":"US","SITE":"AFETR","EPHEMERIS_TYPE":"0","MEAN_ANOMALY":"297.2563","APOAPSIS":"540.716","ARG_OF_PERICENTER":"62.8596","BSTAR":"-0.00048601000000","CLASSIFICATION_TYPE":"U","RA_OF_ASC_NODE":"256.0417","MEAN_MOTION_DOT":"-0.00008026","TIME_SYSTEM":"UTC","TLE_LINE2":"2 53571  53.2174 256.0417 0001633  62.8596 297.2563 15.08892172 20851","ELEMENT_SET_NO":"999","OBJECT_ID":"2022-101AW","FILE":"3724805","REF_FRAME":"TEME","ECCENTRICITY":"0.00016330","LAUNCH_DATE":"2022-08-19","SEMIMAJOR_AXIS":"6917.721","DECAY_DATE":null,"MEAN_ELEMENT_THEORY":"SGP4","REV_AT_EPOCH":"2085","MEAN_MOTION":"15.08892172","MEAN_MOTION_DDOT":"0.0000000000000","INCLINATION":"53.2174","RCS_SIZE":"LARGE","OBJECT_TYPE":"PAYLOAD","OBJECT_NAME":"STARLINK-4584","PERIOD":"95.434","NORAD_CAT_ID":"53571"},{"PERIAPSIS":"538.604","EPOCH":"2022-12-28T20:07:12.724608","TLE_LINE1":"1 53572U 22101AX  22362.83834172 -.00002147  00000-0 -11687-3 0  9991","GP_ID":"221698632","CENTER_NAME":"EARTH","SITE":"AFETR","COUNTRY_CODE":"US","EPHEMERIS_TYPE":"0","MEAN_ANOMALY":"275.3590","APOAPSIS":"540.937","ARG_OF_PERICENTER":"84.7595","BSTAR":"-0.00011687000000","CLASSIFICATION_TYPE":"U","RA_OF_ASC_NODE":"252.0828","MEAN_MOTION_DOT":"-0.00002147","TIME_SYSTEM":"UTC","TLE_LINE2":"2 53572  53.2180 252.0828 0001686  84.7595 275.3590 15.08831807 20294","ELEMENT_SET_NO":"999","OBJECT_ID":"2022-101AX","FILE":"3725038","REF_FRAME":"TEME","ECCENTRICITY":"0.00016860","SEMIMAJOR_AXIS":"6917.905","LAUNCH_DATE":"2022-08-19","DECAY_DATE":null,"MEAN_ELEMENT_THEORY":"SGP4","REV_AT_EPOCH":"2029","MEAN_MOTION":"15.08831807","MEAN_MOTION_DDOT":"0.0000000000000","INCLINATION":"53.2180","RCS_SIZE":"LARGE","OBJECT_TYPE":"PAYLOAD","OBJECT_NAME":"STARLINK-4555","PERIOD":"95.438","NORAD_CAT_ID":"53572"},{"OBJECT_NAME":"STARLINK-4547","OBJECT_TYPE":"PAYLOAD","RCS_SIZE":"LARGE","NORAD_CAT_ID":"53573","PERIOD":"95.437","ECCENTRICITY":"0.00018580","SEMIMAJOR_AXIS":"6917.857","LAUNCH_DATE":"2022-08-19","FILE":"3725038","REF_FRAME":"TEME","OBJECT_ID":"2022-101AY","ELEMENT_SET_NO":"999","MEAN_MOTION_DDOT":"0.0000000000000","INCLINATION":"53.2175","MEAN_MOTION":"15.08847744","DECAY_DATE":null,"MEAN_ELEMENT_THEORY":"SGP4","REV_AT_EPOCH":"2016","RA_OF_ASC_NODE":"255.9834","BSTAR":"0.00002628300000","CLASSIFICATION_TYPE":"U","ARG_OF_PERICENTER":"62.7064","TIME_SYSTEM":"UTC","TLE_LINE2":"2 53573  53.2175 255.9834 0001858  62.7064 297.4118 15.08847744 20160","MEAN_MOTION_DOT":"0.00000130","GP_ID":"221697169","TLE_LINE1":"1 53573U 22101AY  22361.98359253  .00000130  00000-0  26283-4 0  9996","PERIAPSIS":"538.436","EPOCH":"2022-12-27T23:36:22.394592","MEAN_ANOMALY":"297.4118","APOAPSIS":"541.007","COUNTRY_CODE":"US","SITE":"AFETR","EPHEMERIS_TYPE":"0","CENTER_NAME":"EARTH"},{"OBJECT_ID":"2022-101AZ","ELEMENT_SET_NO":"999","SEMIMAJOR_AXIS":"6917.896","LAUNCH_DATE":"2022-08-19","ECCENTRICITY":"0.00019130","REF_FRAME":"TEME","FILE":"3725038","MEAN_MOTION":"15.08834752","REV_AT_EPOCH":"2029","MEAN_ELEMENT_THEORY":"SGP4","DECAY_DATE":null,"MEAN_MOTION_DDOT":"0.0000000000000","INCLINATION":"53.2192","RCS_SIZE":"LARGE","OBJECT_NAME":"STARLINK-4559","OBJECT_TYPE":"PAYLOAD","PERIOD":"95.438","NORAD_CAT_ID":"53574","TLE_LINE1":"1 53574U 22101AZ  22362.83367906 -.00000587  00000-0 -18774-4 0  9990","EPOCH":"2022-12-28T20:00:29.870784","PERIAPSIS":"538.438","GP_ID":"221697812","EPHEMERIS_TYPE":"0","SITE":"AFETR","COUNTRY_CODE":"US","CENTER_NAME":"EARTH","APOAPSIS":"541.085","MEAN_ANOMALY":"296.0417","CLASSIFICATION_TYPE":"U","BSTAR":"-0.00001877400000","ARG_OF_PERICENTER":"64.0772","RA_OF_ASC_NODE":"252.0494","MEAN_MOTION_DOT":"-0.00000587","TLE_LINE2":"2 53574  53.2192 252.0494 0001913  64.0772 296.0417 15.08834752 20299","TIME_SYSTEM":"UTC"},{"PERIOD":"95.438","NORAD_CAT_ID":"53575","RCS_SIZE":"LARGE","OBJECT_NAME":"STARLINK-4551","OBJECT_TYPE":"PAYLOAD","MEAN_MOTION":"15.08836323","REV_AT_EPOCH":"2098","MEAN_ELEMENT_THEORY":"SGP4","DECAY_DATE":null,"INCLINATION":"53.2161","MEAN_MOTION_DDOT":"0.0000000000000","OBJECT_ID":"2022-101BA","ELEMENT_SET_NO":"999","SEMIMAJOR_AXIS":"6917.892","LAUNCH_DATE":"2022-08-19","ECCENTRICITY":"0.00015290","REF_FRAME":"TEME","FILE":"3725038","MEAN_MOTION_DOT":"-0.00000891","TLE_LINE2":"2 53575  53.2161 252.0935 0001529  70.5709 289.5448 15.08836323 20984","TIME_SYSTEM":"UTC","CLASSIFICATION_TYPE":"U","BSTAR":"-0.00003789000000","ARG_OF_PERICENTER":"70.5709","RA_OF_ASC_NODE":"252.0935","EPHEMERIS_TYPE":"0","COUNTRY_CODE":"US","SITE":"AFETR","CENTER_NAME":"EARTH","APOAPSIS":"540.814","MEAN_ANOMALY":"289.5448","TLE_LINE1":"1 53575U 22101BA  22362.84104737 -.00000891  00000-0 -37890-4 0  9991","PERIAPSIS":"538.699","EPOCH":"2022-12-28T20:11:06.492768","GP_ID":"221698021"},{"APOAPSIS":"541.420","MEAN_ANOMALY":"318.4390","EPHEMERIS_TYPE":"0","SITE":"AFETR","COUNTRY_CODE":"US","CENTER_NAME":"EARTH","GP_ID":"221698222","TLE_LINE1":"1 53576U 22101BB  22362.03509994  .00001932  00000-0  13940-3 0  9991","PERIAPSIS":"538.003","EPOCH":"2022-12-28T00:50:32.634816","TLE_LINE2":"2 53576  53.2188 255.6064 0002470  41.6790 318.4390 15.08850992 20998","TIME_SYSTEM":"UTC","MEAN_MOTION_DOT":"0.00001932","RA_OF_ASC_NODE":"255.6064","CLASSIFICATION_TYPE":"U","BSTAR":"0.00013940000000","ARG_OF_PERICENTER":"41.6790","MEAN_MOTION_DDOT":"0.0000000000000","INCLINATION":"53.2188","MEAN_MOTION":"15.08850992","REV_AT_EPOCH":"2099","MEAN_ELEMENT_THEORY":"SGP4","DECAY_DATE":null,"SEMIMAJOR_AXIS":"6917.847","LAUNCH_DATE":"2022-08-19","ECCENTRICITY":"0.00024700","REF_FRAME":"TEME","FILE":"3725038","OBJECT_ID":"2022-101BB","ELEMENT_SET_NO":"999","NORAD_CAT_ID":"53576","PERIOD":"95.437","OBJECT_NAME":"STARLINK-4581","OBJECT_TYPE":"PAYLOAD","RCS_SIZE":"LARGE"},{"BSTAR":"-0.00000853590000","CLASSIFICATION_TYPE":"U","ARG_OF_PERICENTER":"74.8212","RA_OF_ASC_NODE":"252.0731","MEAN_MOTION_DOT":"-0.00000424","TLE_LINE2":"2 53577  53.2174 252.0731 0002036  74.8212 285.3005 15.08831936 21118","TIME_SYSTEM":"UTC","TLE_LINE1":"1 53577U 22101BC  22362.83736050 -.00000424  00000-0 -85359-5 0  9997","EPOCH":"2022-12-28T20:05:47.947200","PERIAPSIS":"538.362","GP_ID":"221697603","EPHEMERIS_TYPE":"0","SITE":"AFETR","COUNTRY_CODE":"US","CENTER_NAME":"EARTH","APOAPSIS":"541.179","MEAN_ANOMALY":"285.3005","RCS_SIZE":"LARGE","OBJECT_NAME":"STARLINK-4553","OBJECT_TYPE":"PAYLOAD","PERIOD":"95.438","NORAD_CAT_ID":"53577","OBJECT_ID":"2022-101BC","ELEMENT_SET_NO":"999","SEMIMAJOR_AXIS":"6917.905","LAUNCH_DATE":"2022-08-19","ECCENTRICITY":"0.00020360","REF_FRAME":"TEME","FILE":"3725038","MEAN_MOTION":"15.08831936","REV_AT_EPOCH":"2111","MEAN_ELEMENT_THEORY":"SGP4","DECAY_DATE":null,"MEAN_MOTION_DDOT":"0.0000000000000","INCLINATION":"53.2174"},{"COUNTRY_CODE":"US","SITE":"AFETR","EPHEMERIS_TYPE":"0","CENTER_NAME":"EARTH","MEAN_ANOMALY":"324.3275","APOAPSIS":"541.677","TLE_LINE1":"1 53578U 22101BD  22362.82630945 -.00000788  00000-0 -31381-4 0  9991","EPOCH":"2022-12-28T19:49:53.136480","PERIAPSIS":"537.825","GP_ID":"221697379","MEAN_MOTION_DOT":"-0.00000788","TIME_SYSTEM":"UTC","TLE_LINE2":"2 53578  53.2184 252.0084 0002784  35.7904 324.3275 15.08838109 20295","BSTAR":"-0.00003138100000","CLASSIFICATION_TYPE":"U","ARG_OF_PERICENTER":"35.7904","RA_OF_ASC_NODE":"252.0084","MEAN_MOTION":"15.08838109","MEAN_ELEMENT_THEORY":"SGP4","DECAY_DATE":null,"REV_AT_EPOCH":"2029","MEAN_MOTION_DDOT":"0.0000000000000","INCLINATION":"53.2184","OBJECT_ID":"2022-101BD","ELEMENT_SET_NO":"999","ECCENTRICITY":"0.00027840","SEMIMAJOR_AXIS":"6917.886","LAUNCH_DATE":"2022-08-19","FILE":"3725038","REF_FRAME":"TEME","PERIOD":"95.438","NORAD_CAT_ID":"53578","RCS_SIZE":"LARGE","OBJECT_NAME":"STARLINK-4556","OBJECT_TYPE":"PAYLOAD"},{"OBJECT_ID":"2022-101BE","ELEMENT_SET_NO":"999","ECCENTRICITY":"0.00022360","SEMIMAJOR_AXIS":"6917.815","LAUNCH_DATE":"2022-08-19","FILE":"3724496","REF_FRAME":"TEME","MEAN_MOTION":"15.08861518","MEAN_ELEMENT_THEORY":"SGP4","DECAY_DATE":null,"REV_AT_EPOCH":"2018","MEAN_MOTION_DDOT":"0.0000000000000","INCLINATION":"53.2177","RCS_SIZE":"LARGE","OBJECT_NAME":"STARLINK-4580","OBJECT_TYPE":"PAYLOAD","PERIOD":"95.436","NORAD_CAT_ID":"53579","TLE_LINE1":"1 53579U 22101BE  22362.09396178  .00004946  00000-0  32845-3 0  9991","EPOCH":"2022-12-28T02:15:18.297792","PERIAPSIS":"538.133","GP_ID":"221633766","SITE":"AFETR","COUNTRY_CODE":"US","EPHEMERIS_TYPE":"0","CENTER_NAME":"EARTH","MEAN_ANOMALY":"318.0976","APOAPSIS":"541.226","BSTAR":"0.00032845000000","CLASSIFICATION_TYPE":"U","ARG_OF_PERICENTER":"42.0187","RA_OF_ASC_NODE":"255.2552","MEAN_MOTION_DOT":"0.00004946","TIME_SYSTEM":"UTC","TLE_LINE2":"2 53579  53.2177 255.2552 0002236  42.0187 318.0976 15.08861518 20185"},{"PERIOD":"95.436","NORAD_CAT_ID":"53588","RCS_SIZE":"LARGE","OBJECT_TYPE":"PAYLOAD","OBJECT_NAME":"STARLINK-4691","MEAN_ELEMENT_THEORY":"SGP4","DECAY_DATE":null,"REV_AT_EPOCH":"1984","MEAN_MOTION":"15.08858249","INCLINATION":"53.2157","MEAN_MOTION_DDOT":"0.0000000000000","ELEMENT_SET_NO":"999","OBJECT_ID":"2022-104A","FILE":"3724805","REF_FRAME":"TEME","ECCENTRICITY":"0.00018570","SEMIMAJOR_AXIS":"6917.825","LAUNCH_DATE":"2022-08-28","MEAN_MOTION_DOT":"0.00004722","TIME_SYSTEM":"UTC","TLE_LINE2":"2 53588  53.2157  85.3162 0001857  37.3991 322.7130 15.08858249 19842","ARG_OF_PERICENTER":"37.3991","CLASSIFICATION_TYPE":"U","BSTAR":"0.00031442000000","RA_OF_ASC_NODE":"85.3162","CENTER_NAME":"EARTH","SITE":"AFETR","COUNTRY_CODE":"US","EPHEMERIS_TYPE":"0","MEAN_ANOMALY":"322.7130","APOAPSIS":"540.974","EPOCH":"2022-12-28T05:22:13.755648","PERIAPSIS":"538.405","TLE_LINE1":"1 53588U 22104A   22362.22377032  .00004722  00000-0  31442-3 0  9991","GP_ID":"221665924"}];
